[{"OBJECT_NAME":"KUIPER-00057","OBJECT_ID":"2025-134T","EPOCH":"2026-03-09T17:50:26.275488","MEAN_MOTION":14.83766269,"ECCENTRICITY":0.00040733,"INCLINATION":51.8993,"RA_OF_ASC_NODE":230.4357,"ARG_OF_PERICENTER":273.9501,"MEAN_ANOMALY":86.0998,"EPHEMERIS_TYPE":0,"CLASSIFICATION_TYPE":"U","NORAD_CAT_ID":64517,"ELEMENT_SET_NO":999,"REV_AT_EPOCH":4011,"BSTAR":0.00072082033,"MEAN_MOTION_DOT":5.801e-5,"MEAN_MOTION_DDOT":0},{"OBJECT_NAME":"COSMOS 2251 DEB","OBJECT_ID":"1993-036AQ","EPOCH":"2026-03-09T23:00:35.016768","MEAN_MOTION":14.81930563,"ECCENTRICITY":0.00231452,"INCLINATION":74.0303,"RA_OF_ASC_NODE":269.7566,"ARG_OF_PERICENTER":315.1256,"MEAN_ANOMALY":167.4806,"EPHEMERIS_TYPE":0,"CLASSIFICATION_TYPE":"U","NORAD_CAT_ID":33799,"ELEMENT_SET_NO":999,"REV_AT_EPOCH":90102,"BSTAR":0.0021188422,"MEAN_MOTION_DOT":0.00016871,"MEAN_MOTION_DDOT":0}]
